{
  "type": "FeatureCollection",
  "features": [
    {
      "type": "Feature",
      "properties": {
        "norad_id": 29760,
        "name": "FENGYUN 1C DEB",
        "group": "fengyun-1c-debris",
        "lat": 10.094050643403879,
        "lon": -18.296626315597763,
        "alt_km": 961.2862642787613,
        "timestamp": "2025-12-06T22:38:42.999409+00:00",
        "meta_object_name": "FENGYUN 1C DEB",
        "meta_object_id": "1999-025BA",
        "meta_epoch": "2025-12-06T10:39:33.873984",
        "meta_mean_motion": 14.08282711,
        "meta_eccentricity": 0.01305008,
        "meta_inclination": 98.7622,
        "meta_ra_of_asc_node": 342.7916,
        "meta_arg_of_pericenter": 191.3278,
        "meta_mean_anomaly": 168.4948,
        "meta_ephemeris_type": 0,
        "meta_classification_type": "U",
        "meta_norad_cat_id": 29760,
        "meta_element_set_no": 999,
        "meta_rev_at_epoch": 97004,
        "meta_bstar": 0.00038897484,
        "meta_mean_motion_dot": 6.76e-06,
        "meta_mean_motion_ddot": 0,
        "tle_line1": "1 29760U 99025BA  25340.44414206  .00000676  00000+0  38897-3 0  9994",
        "tle_line2": "2 29760  98.7622 342.7916 0130500 191.3278 168.4948 14.08282711970046"
      },
      "geometry": {
        "type": "Point",
        "coordinates": [
          -18.296626315597763,
          10.094050643403879
        ]
      }
    },
    {
      "type": "Feature",
      "properties": {
        "norad_id": 29762,
        "name": "FENGYUN 1C DEB",
        "group": "fengyun-1c-debris",
        "lat": 39.8419295361223,
        "lon": -43.35254229651536,
        "alt_km": 713.4198659219701,
        "timestamp": "2025-12-06T22:38:42.999420+00:00",
        "meta_object_name": "FENGYUN 1C DEB",
        "meta_object_id": "1999-025BC",
        "meta_epoch": "2025-12-06T05:38:56.543424",
        "meta_mean_motion": 14.22558142,
        "meta_eccentricity": 0.02044309,
        "meta_inclination": 98.5786,
        "meta_ra_of_asc_node": 323.1934,
        "meta_arg_of_pericenter": 354.574,
        "meta_mean_anomaly": 19.5085,
        "meta_ephemeris_type": 0,
        "meta_classification_type": "U",
        "meta_norad_cat_id": 29762,
        "meta_element_set_no": 999,
        "meta_rev_at_epoch": 97856,
        "meta_bstar": 0.00072797428,
        "meta_mean_motion_dot": 1.967e-05,
        "meta_mean_motion_ddot": 0,
        "tle_line1": "1 29762U 99025BC  25340.23537666  .00001967  00000+0  72797-3 0  9990",
        "tle_line2": "2 29762  98.5786 323.1934 0204430 354.5740  19.5085 14.22558142978564"
      },
      "geometry": {
        "type": "Point",
        "coordinates": [
          -43.35254229651536,
          39.8419295361223
        ]
      }
    },
    {
      "type": "Feature",
      "properties": {
        "norad_id": 29763,
        "name": "FENGYUN 1C DEB",
        "group": "fengyun-1c-debris",
        "lat": -30.082578326972957,
        "lon": 135.39654157671538,
        "alt_km": 782.9321419182261,
        "timestamp": "2025-12-06T22:38:42.999430+00:00",
        "meta_object_name": "FENGYUN 1C DEB",
        "meta_object_id": "1999-025BD",
        "meta_epoch": "2025-12-06T10:25:47.671392",
        "meta_mean_motion": 14.07870269,
        "meta_eccentricity": 0.01270895,
        "meta_inclination": 98.7603,
        "meta_ra_of_asc_node": 320.0272,
        "meta_arg_of_pericenter": 198.3333,
        "meta_mean_anomaly": 313.4862,
        "meta_ephemeris_type": 0,
        "meta_classification_type": "U",
        "meta_norad_cat_id": 29763,
        "meta_element_set_no": 999,
        "meta_rev_at_epoch": 96961,
        "meta_bstar": 0.00022480244,
        "meta_mean_motion_dot": 3.68e-06,
        "meta_mean_motion_ddot": 0,
        "tle_line1": "1 29763U 99025BD  25340.43457953  .00000368  00000+0  22480-3 0  9991",
        "tle_line2": "2 29763  98.7603 320.0272 0127089 198.3333 313.4862 14.07870269969617"
      },
      "geometry": {
        "type": "Point",
        "coordinates": [
          135.39654157671538,
          -30.082578326972957
        ]
      }
    },
    {
      "type": "Feature",
      "properties": {
        "norad_id": 29765,
        "name": "FENGYUN 1C DEB",
        "group": "fengyun-1c-debris",
        "lat": -32.486374261121796,
        "lon": 173.63006060091234,
        "alt_km": 902.762084302828,
        "timestamp": "2025-12-06T22:38:42.999440+00:00",
        "meta_object_name": "FENGYUN 1C DEB",
        "meta_object_id": "1999-025BF",
        "meta_epoch": "2025-12-06T13:40:48.448416",
        "meta_mean_motion": 14.02150743,
        "meta_eccentricity": 0.00596546,
        "meta_inclination": 98.8308,
        "meta_ra_of_asc_node": 358.9489,
        "meta_arg_of_pericenter": 109.6845,
        "meta_mean_anomaly": 17.9409,
        "meta_ephemeris_type": 0,
        "meta_classification_type": "U",
        "meta_norad_cat_id": 29765,
        "meta_element_set_no": 999,
        "meta_rev_at_epoch": 96664,
        "meta_bstar": 0.00020743466,
        "meta_mean_motion_dot": 2.8e-06,
        "meta_mean_motion_ddot": 0,
        "tle_line1": "1 29765U 99025BF  25340.57000519  .00000280  00000+0  20743-3 0  9993",
        "tle_line2": "2 29765  98.8308 358.9489 0059654 109.6845  17.9409 14.02150743966643"
      },
      "geometry": {
        "type": "Point",
        "coordinates": [
          173.63006060091234,
          -32.486374261121796
        ]
      }
    },
    {
      "type": "Feature",
      "properties": {
        "norad_id": 29766,
        "name": "FENGYUN 1C DEB",
        "group": "fengyun-1c-debris",
        "lat": 69.29689716316787,
        "lon": 134.74464025628097,
        "alt_km": 1000.1916100057952,
        "timestamp": "2025-12-06T22:38:42.999451+00:00",
        "meta_object_name": "FENGYUN 1C DEB",
        "meta_object_id": "1999-025BG",
        "meta_epoch": "2025-12-06T09:06:39.092832",
        "meta_mean_motion": 13.97007157,
        "meta_eccentricity": 0.01466301,
        "meta_inclination": 98.6845,
        "meta_ra_of_asc_node": 290.3574,
        "meta_arg_of_pericenter": 305.9164,
        "meta_mean_anomaly": 207.8684,
        "meta_ephemeris_type": 0,
        "meta_classification_type": "U",
        "meta_norad_cat_id": 29766,
        "meta_element_set_no": 999,
        "meta_rev_at_epoch": 95715,
        "meta_bstar": 0.0027793821,
        "meta_mean_motion_dot": 4.205e-05,
        "meta_mean_motion_ddot": 0,
        "tle_line1": "1 29766U 99025BG  25340.37961913  .00004205  00000+0  27794-2 0  9999",
        "tle_line2": "2 29766  98.6845 290.3574 0146630 305.9164 207.8684 13.97007157957152"
      },
      "geometry": {
        "type": "Point",
        "coordinates": [
          134.74464025628097,
          69.29689716316787
        ]
      }
    },
    {
      "type": "Feature",
      "properties": {
        "norad_id": 29767,
        "name": "FENGYUN 1C DEB",
        "group": "fengyun-1c-debris",
        "lat": -49.91470561259129,
        "lon": 120.33468950166501,
        "alt_km": 1102.9360677605328,
        "timestamp": "2025-12-06T22:38:42.999461+00:00",
        "meta_object_name": "FENGYUN 1C DEB",
        "meta_object_id": "1999-025BH",
        "meta_epoch": "2025-12-06T15:00:20.576160",
        "meta_mean_motion": 14.03256148,
        "meta_eccentricity": 0.03331692,
        "meta_inclination": 98.1992,
        "meta_ra_of_asc_node": 309.9109,
        "meta_arg_of_pericenter": 78.6068,
        "meta_mean_anomaly": 343.0209,
        "meta_ephemeris_type": 0,
        "meta_classification_type": "U",
        "meta_norad_cat_id": 29767,
        "meta_element_set_no": 999,
        "meta_rev_at_epoch": 95514,
        "meta_bstar": 0.0031095181,
        "meta_mean_motion_dot": 7.908e-05,
        "meta_mean_motion_ddot": 0,
        "tle_line1": "1 29767U 99025BH  25340.62523815  .00007908  00000+0  31095-2 0  9995",
        "tle_line2": "2 29767  98.1992 309.9109 0333169  78.6068 343.0209 14.03256148955141"
      },
      "geometry": {
        "type": "Point",
        "coordinates": [
          120.33468950166501,
          -49.91470561259129
        ]
      }
    },
    {
      "type": "Feature",
      "properties": {
        "norad_id": 29769,
        "name": "FENGYUN 1C DEB",
        "group": "fengyun-1c-debris",
        "lat": 65.03628784583528,
        "lon": 17.965699787253907,
        "alt_km": 828.3614131668073,
        "timestamp": "2025-12-06T22:38:42.999471+00:00",
        "meta_object_name": "FENGYUN 1C DEB",
        "meta_object_id": "1999-025BK",
        "meta_epoch": "2025-12-02T16:23:36.839328",
        "meta_mean_motion": 14.1344001,
        "meta_eccentricity": 0.00941574,
        "meta_inclination": 99.1074,
        "meta_ra_of_asc_node": 33.7848,
        "meta_arg_of_pericenter": 158.4055,
        "meta_mean_anomaly": 202.1129,
        "meta_ephemeris_type": 0,
        "meta_classification_type": "U",
        "meta_norad_cat_id": 29769,
        "meta_element_set_no": 999,
        "meta_rev_at_epoch": 96539,
        "meta_bstar": 0.0018821587,
        "meta_mean_motion_dot": 3.647e-05,
        "meta_mean_motion_ddot": 0,
        "tle_line1": "1 29769U 99025BK  25336.68306527  .00003647  00000+0  18822-2 0  9996",
        "tle_line2": "2 29769  99.1074  33.7848 0094157 158.4055 202.1129 14.13440010965399"
      },
      "geometry": {
        "type": "Point",
        "coordinates": [
          17.965699787253907,
          65.03628784583528
        ]
      }
    }
  ]
}